GLOBALSTAR M063         
1 26081U 00008A   24142.25484470 -.00000003  00000+0  11605-2 0  9990
2 26081  51.9969  63.7648 0004367 289.0813 239.9720 11.86156277111068
GLOBALSTAR M062         
1 26082U 00008B   24142.43502589 -.00000018  00000+0  57529-3 0  9995
2 26082  51.9819 167.7797 0006951 355.5663 147.1479 12.43436294447883
GLOBALSTAR M060         
1 26083U 00008C   24142.19746309 -.00000111  00000+0 -20032-3 0  9993
2 26083  52.0029  73.0273 0003771  46.0431 101.7844 12.17633824104611
GLOBALSTAR M064         
1 26084U 00008D   24142.23727603 -.00000039  00000+0  63121-3 0  9999
2 26084  52.0000 167.2635 0001272  17.1678 342.9198 11.88519372120498
GLOBALSTAR M069         
1 31573U 07020C   24142.57805994 -.00000071  00000+0  18478-3 0  9997
2 31573  51.9955 294.0224 0000989 121.4314 315.8748 12.62273441785097
GLOBALSTAR M071         
1 31576U 07020F   24142.60462187 -.00000077  00000+0  15186-3 0  9996
2 31576  52.0075 299.0864 0000780  85.8678 351.8890 12.62266361446281
